STARLETTE               
1 07646U 75010A   17309.20608715 -.00000148  00000-0 -23524-5 0  9991
2 07646  49.8232 281.7633 0205670 110.6517 251.6560 13.82303420159369
LAGEOS 1                
1 08820U 76039A   17308.71527212  .00000015  00000-0  00000-0 0  9995
2 08820 109.8135 181.5411 0044540 255.6466 167.0441  6.38664632712512
AJISAI (EGS)            
1 16908U 86061A   17308.91369453 -.00000113  00000-0 -11037-3 0  9996
2 16908  50.0077 101.8293 0011607  92.5142   7.6620 12.44486826 88751
LAGEOS 2                
1 22195U 92070B   17308.89261005 -.00000009  00000-0  00000-0 0  9997
2 22195  52.6522  95.0965 0137477 251.9321 344.7472  6.47294133591947
STELLA                  
1 22824U 93061B   17308.96725132 -.00000038  00000-0  31217-5 0  9992
2 22824  98.8375 267.1315 0006471   7.5106  63.4907 14.27370620255937
GRACE-1                 
1 27391U 02012A   17309.12687382  .00030911 -69554-6  11071-3 0  9997
2 27391  88.9799 299.9926 0007869 119.2923 310.6277 15.88517582879759
GRACE-2                 
1 27392U 02012B   17309.53487076  .00087743  16912-5  27280-3 0  9993
2 27392  88.9801 300.0847 0008457 120.3741 239.8380 15.91453803879818
LARES                   
1 38077U 12006A   17309.04321346  .00000003  00000-0  25615-3 0  9992
2 38077  69.4905 266.1367 0007666 146.9144 213.2339 12.54931411262447
